{
  "type": "FeatureCollection",
  "name": "jabodetabek-mrt-network",
  "features": [
    {
      "type": "Feature",
      "properties": {
        "system": "mrt",
        "name": "MRT Jakarta North–South",
        "id": "mrt-ns"
      },
      "geometry": {
        "type": "LineString",
        "coordinates": [
          [106.774937, -6.289254],
          [106.792466, -6.292429],
          [106.7975, -6.2774],
          [106.7973162, -6.2667982],
          [106.797134, -6.2555837],
          [106.7982103, -6.2445265],
          [106.7985954, -6.239085],
          [106.802456, -6.226683],
          [106.808573, -6.222331],
          [106.8173187, -6.2154465],
          [106.8217, -6.2091],
          [106.822746, -6.200786],
          [106.8228579, -6.1934095]
        ]
      }
    }
  ]
}
