{
  "type": "FeatureCollection",
  "name": "jabodetabek-krl-network",
  "features": [
    {
      "type": "Feature",
      "properties": {
        "system": "krl",
        "name": "KRL Bogor Line",
        "id": "krl-bogor"
      },
      "geometry": {
        "type": "LineString",
        "coordinates": [
          [106.8314, -6.1375],
          [106.8268, -6.1448],
          [106.8255, -6.1522],
          [106.825, -6.1589],
          [106.8267, -6.1667],
          [106.8325, -6.185],
          [106.84, -6.1917],
          [106.8502, -6.2099],
          [106.8483, -6.2267],
          [106.8583, -6.2425],
          [106.855, -6.255],
          [106.845, -6.27],
          [106.845, -6.2833],
          [106.845, -6.3083],
          [106.8383, -6.3333],
          [106.8333, -6.35],
          [106.8317, -6.3625],
          [106.8333, -6.37],
          [106.8167, -6.3833],
          [106.8142, -6.3917],
          [106.8, -6.4667],
          [106.795, -6.5167],
          [106.7925, -6.595]
        ]
      }
    },
    {
      "type": "Feature",
      "properties": {
        "system": "krl",
        "name": "KRL Cikarang Loop Line",
        "id": "krl-cikarang"
      },
      "geometry": {
        "type": "LineString",
        "coordinates": [
          [106.835, -6.1333],
          [106.8, -6.145],
          [106.8, -6.155],
          [106.8108, -6.1867],
          [106.8167, -6.2],
          [106.8217, -6.2017],
          [106.8233, -6.2033],
          [106.83, -6.21],
          [106.8502, -6.2099],
          [106.855, -6.205],
          [106.8683, -6.215],
          [106.89, -6.2167],
          [106.905, -6.22],
          [106.92, -6.225],
          [106.94, -6.23],
          [106.965, -6.2333],
          [106.9992, -6.2367],
          [107.02, -6.24],
          [107.05, -6.25],
          [107.0833, -6.26],
          [107.1, -6.265],
          [107.15, -6.27]
        ]
      }
    },
    {
      "type": "Feature",
      "properties": {
        "system": "krl",
        "name": "KRL Rangkasbitung Line",
        "id": "krl-rangkasbitung"
      },
      "geometry": {
        "type": "LineString",
        "coordinates": [
          [106.8108, -6.1867],
          [106.795, -6.2],
          [106.7833, -6.2333],
          [106.75, -6.2667],
          [106.7333, -6.2833],
          [106.7167, -6.3],
          [106.7, -6.3167],
          [106.6667, -6.3167],
          [106.65, -6.3333],
          [106.55, -6.35],
          [106.4667, -6.2667],
          [106.25, -6.35]
        ]
      }
    },
    {
      "type": "Feature",
      "properties": {
        "system": "krl",
        "name": "KRL Tangerang Line",
        "id": "krl-tangerang"
      },
      "geometry": {
        "type": "LineString",
        "coordinates": [
          [106.8, -6.155],
          [106.79, -6.16],
          [106.775, -6.16],
          [106.75, -6.155],
          [106.7333, -6.155],
          [106.7167, -6.155],
          [106.7, -6.155],
          [106.6667, -6.1667],
          [106.65, -6.1667],
          [106.6333, -6.175],
          [106.63, -6.1783]
        ]
      }
    },
    {
      "type": "Feature",
      "properties": {
        "system": "krl",
        "name": "KRL Tanjung Priok Line",
        "id": "krl-tanjung-priok"
      },
      "geometry": {
        "type": "LineString",
        "coordinates": [
          [106.8314, -6.1375],
          [106.835, -6.1333],
          [106.845, -6.125],
          [106.85, -6.12],
          [106.87, -6.11]
        ]
      }
    }
  ]
}
