{
  "type": "FeatureCollection",
  "name": "jabodetabek-lrt-network",
  "features": [
    {
      "type": "Feature",
      "properties": {
        "system": "lrt",
        "name": "LRT Jabodebek Cibubur Line",
        "id": "lrt-cibubur"
      },
      "geometry": {
        "type": "LineString",
        "coordinates": [
          [106.82565, -6.20471],
          [106.830211, -6.209277],
          [106.83226, -6.22175],
          [106.833175, -6.228881],
          [106.83847, -6.24213],
          [106.857102, -6.243476],
          [106.864131, -6.243477],
          [106.872386, -6.246225],
          [106.880535, -6.292874],
          [106.884325, -6.309541],
          [106.8867, -6.3237],
          [106.895623, -6.373988]
        ]
      }
    },
    {
      "type": "Feature",
      "properties": {
        "system": "lrt",
        "name": "LRT Jabodebek Bekasi Line",
        "id": "lrt-bekasi"
      },
      "geometry": {
        "type": "LineString",
        "coordinates": [
          [106.82565, -6.20471],
          [106.830211, -6.209277],
          [106.83226, -6.22175],
          [106.833175, -6.228881],
          [106.83847, -6.24213],
          [106.857102, -6.243476],
          [106.864131, -6.243477],
          [106.872386, -6.246225],
          [106.885241, -6.246471],
          [106.927679, -6.257775],
          [106.951094, -6.256278],
          [106.96321, -6.25465],
          [106.990076, -6.252926],
          [107.021432, -6.263952]
        ]
      }
    }
  ]
}
